SCD 1                   
1 22490U 93009B   26193.99060258  .00000288  00000+0  28089-4 0  9996
2 22490  24.9704  48.2532 0042017  51.2320  94.1420 14.46128066764854
TECHSAT 1B (GO-32)      
1 25397U 98043D   26194.54595469  .00000016  00000+0  27074-4 0  9999
2 25397  99.0084 187.9711 0002146 116.9543 243.1854 14.24433163455084
SCD 2                   
1 25504U 98060A   26194.55417704  .00000281  00000+0  27734-4 0  9991
2 25504  24.9948 269.5575 0016949  42.4080 101.2086 14.45534519464148
DLR-TUBSAT              
1 25757U 99029B   26194.54056400  .00000010  00000+0  14499-4 0  9992
2 25757  98.6710 190.9133 0012955 270.1917  89.7793 14.52433076437073
TERRA                   
1 25994U 99068A   26194.66709251  .00000193  00000+0  48320-4 0  9992
2 25994  97.9443 243.1616 0003348 125.8536 348.4092 14.61122991413473
MAROC-TUBSAT            
1 27004U 01056D   26194.65679583 -.00000033  00000+0  15773-4 0  9999
2 27004  99.8096  12.0169 0020609  75.8923   3.5642 13.70263503229818
AQUA                    
1 27424U 02022A   26194.60434948  .00000366  00000+0  82492-4 0  9998
2 27424  98.4294 164.4181 0000889 109.9840 304.5267 14.62195665287131
SHIYAN-1 (SY-1)         
1 28220U 04012A   26194.20906282  .00008263  00000+0  25047-3 0  9991
2 28220  97.8692 273.9793 0004070 284.5782  75.5008 15.34420203215089
AURA                    
1 28376U 04026A   26194.55264247  .00000368  00000+0  84269-4 0  9994
2 28376  98.3430 151.2268 0001292  92.4586 267.6763 14.61366380170067
IRS-P5 (CARTOSAT-1)     
1 28649U 05017A   26194.51845378  .00000608  00000+0  66640-4 0  9994
2 28649  97.5307 216.3884 0001464  56.5157 303.6202 14.91114722147749
SINAH 1                 
1 28893U 05043D   26194.63799204  .00000135  00000+0  34987-4 0  9997
2 28893  98.2891 329.1203 0014285 188.3959 171.7006 14.64174894104399
RESURS-DK 1             
1 29228U 06021A   26194.60795401  .00000955  00000+0  59601-4 0  9999
2 29228  69.9309 271.1556 0007013 272.7171  87.3192 15.13315847106573
ARIRANG-2 (KOMPSAT-2)   
1 29268U 06031A   26194.66442196 -.00000031  00000+0  26076-5 0  9997
2 29268  97.8310  17.8311 0014386 355.7176  73.9003 14.64674724 65350
LAPAN-TUBSAT            
1 29709U 07001A   26194.65062830  .00000156  00000+0  24411-4 0  9994
2 29709  98.1349 194.4725 0013609  97.8791 262.3969 14.85976336 55082
HAIYANG-1B              
1 31113U 07010A   26194.50466458  .00000029  00000+0  26779-4 0  9992
2 31113  98.3513 175.3313 0014613 120.4802 239.7827 14.31033054  4405
COSMO-SKYMED 1          
1 31598U 07023A   26194.60140953  .00001329  00000+0  12011-3 0  9990
2 31598  97.8844  26.6807 0001289 103.7292 256.4073 14.97214615 33745
TERRASAR-X              
1 31698U 07026A   26188.47915537  .00000240  00000+0  14624-4 0  9994
2 31698  97.4461 195.8972 0001878  86.9540 273.1909 15.19153986 56300
WORLDVIEW-1 (WV-1)      
1 32060U 07041A   26194.61419108  .00003490  00000+0  14468-3 0  9996
2 32060  97.3902 313.9862 0001379 213.1633 146.9518 15.24547988 46900
YAOGAN-3                
1 32289U 07055A   26194.63898148  .00001828  00000+0  19115-3 0  9998
2 32289  97.8149 224.2551 0001635  80.5564 279.5839 14.90879802  9817
COSMO-SKYMED 2          
1 32376U 07059A   26194.62516778  .00000192  00000+0  30654-4 0  9999
2 32376  97.8892  17.8405 0001422  94.2137 265.9238 14.82149785  5926
RADARSAT-2              
1 32382U 07061A   26194.62674348  .00000101  00000+0  56153-4 0  9999
2 32382  98.5780 201.1815 0001323  83.7375 276.3959 14.29983315969737
CARTOSAT-2A             
1 32783U 08021A   26194.63011444  .00000801  00000+0  11438-3 0  9997
2 32783  97.7627 242.4344 0012619  32.0756 328.1221 14.79276717982715
HUANJING 1A (HJ-1A)     
1 33320U 08041A   26194.59736397  .00001109  00000+0  13872-3 0  9999
2 33320  97.6690 179.4167 0020482  54.4756 305.8365 14.84048661962326
HUANJING 1B (HJ-1B)     
1 33321U 08041B   26194.64602145  .00000290  00000+0  41242-4 0  9992
2 33321  97.6526 182.5545 0037906  96.0787 264.4748 14.83361889962330
GEOEYE 1                
1 33331U 08042A   26194.58999671  .00000191  00000+0  44866-4 0  9995
2 33331  98.1328 268.2047 0004051 352.2629   7.8511 14.64648606954010
THEOS                   
1 33396U 08049A   26194.60112221 -.00000014  00000+0  13424-4 0  9995
2 33396  98.5565 251.0253 0001151  86.1159 274.0150 14.20136470921717
COSMO-SKYMED 3          
1 33412U 08054A   26194.56923375  .00001268  00000+0  88655-4 0  9994
2 33412  97.8255  53.5769 0015676 171.6512 188.4978 15.07104231960918
YAOGAN-4                
1 33446U 08061A   26194.40969905  .00000496  00000+0  67212-4 0  9999
2 33446  97.9304 127.7272 0013993 351.5822   8.5155 14.83249395949557
GOSAT (IBUKI)           
1 33492U 09002A   26194.32031715  .00000338  00000+0  68026-4 0  9995
2 33492  98.0913 305.0769 0001134  91.0437 269.0898 14.67538398935290
DEIMOS-1                
1 35681U 09041A   26194.57083634  .00000255  00000+0  44729-4 0  9996
2 35681  97.7424 350.6590 0002757  94.4369 265.7155 14.75263200910777
